{"version": 0.6, "generator": "Overpass API 0.7.62.1 084b4234", "osm3s": {"timestamp_osm_base": "2024-04-11T14:18:35Z", "copyright": "The data included in this document is from www.openstreetmap.org. The data is made available under ODbL."}, "elements": [{"type": "node", "id": 1892744308, "lat": 35.6867856, "lon": 139.7817529, "tags": {"bus": "yes", "highway": "bus_stop", "name": "\u4eba\u5f62\u753a\u4e09\u4e01\u76ee", "operator": "\u6771\u4eac\u90fd\u4ea4\u901a\u5c40", "public_transport": "platform"}}, {"type": "node", "id": 1937182801, "lat": 35.6847356, "lon": 139.7860952, "tags": {"bus": "yes", "highway": "bus_stop", "image": "http://storage5.openstreetcam.org/files/photo/2017/9/9/lth/583739_ed243_1.jpg", "name": "\u6d5c\u753a\u4e2d\u306e\u6a4b", "network": "\u90fd\u55b6\u30d0\u30b9", "network:en": "Toei Bus", "network:ja": "\u90fd\u55b6\u30d0\u30b9", "network:wikidata": "Q859227", "operator": "\u6771\u4eac\u90fd\u4ea4\u901a\u5c40", "public_transport": "platform", "shelter": "yes", "survey:date": "2017-09-09"}}, {"type": "node", "id": 2264347181, "lat": 35.6911561, "lon": 139.7793746, "tags": {"bus": "yes", "highway": "bus_stop", "name": "\u5c0f\u4f1d\u99ac\u753a", "name:en": "Kodemmacho", "name:ja": "\u5c0f\u4f1d\u99ac\u753a", "operator": "\u6771\u4eac\u90fd\u4ea4\u901a\u5c40", "public_transport": "platform"}}, {"type": "node", "id": 2365963948, "lat": 35.6881629, "lon": 139.7863697, "tags": {"bus": "yes", "highway": "bus_stop", "name": "\u4e45\u677e\u753a (Hisamatsucho)", "name:en": "Hisamatsucho", "name:ja": "\u4e45\u677e\u753a", "name:ja_kana": "\u3072\u3055\u307e\u3064\u3061\u3087\u3046", "name:ja_rm": "Hisamatsuch\u014d", "operator": "\u6771\u4eac\u90fd\u4ea4\u901a\u5c40", "public_transport": "platform", "source": "survey"}}, {"type": "node", "id": 2365963997, "lat": 35.6942043, "lon": 139.7805577, "tags": {"bus": "yes", "highway": "bus_stop", "name": "\u6771\u795e\u7530", "name:en": "Higashi-kanda", "name:ja": "\u6771\u795e\u7530", "name:ja_kana": "\u3072\u3060\u3057\u304b\u3093\u3060", "name:ja_rm": "Higashi-kanda", "note": "\u677142-2(\u59cb\u767a)", "operator": "\u6771\u4eac\u90fd\u4ea4\u901a\u5c40", "public_transport": "platform", "source": "survey"}}, {"type": "node", "id": 2365964017, "lat": 35.6862252, "lon": 139.7878972, "tags": {"bus": "yes", "highway": "bus_stop", "name": "\u6d5c\u753a\u4e2d\u306e\u6a4b", "name:en": "Hamacho-nakanohashi", "name:ja": "\u6d5c\u753a\u4e2d\u306e\u6a4b", "name:ja_kana": "\u306f\u307e\u3061\u3087\u3046\u306a\u304b\u306e\u306f\u3057", "name:ja_rm": "Hamach\u014d-nakanohashi", "operator": "\u6771\u4eac\u90fd\u4ea4\u901a\u5c40", "public_transport": "platform", "source": "survey"}}, {"type": "node", "id": 2365964040, "lat": 35.6931837, "lon": 139.7817262, "tags": {"bus": "yes", "highway": "bus_stop", "name": "\u99ac\u55b0\u753a", "name:en": "Bakurocho", "name:ja": "\u99ac\u55b0\u753a", "name:ja_kana": "\u3070\u304f\u308d\u3061\u3087\u3046", "name:ja_rm": "Bakurocho", "note": "\u79cb26\u3001\u677142-2", "operator": "\u6771\u4eac\u90fd\u4ea4\u901a\u5c40", "public_transport": "platform", "source": "survey"}}, {"type": "node", "id": 2365964047, "lat": 35.6911884, "lon": 139.7839178, "tags": {"bus": "yes", "highway": "bus_stop", "name": "\u6771\u65e5\u672c\u6a4b\u99c5\u524d", "name:en": "Higashi-nihombashi-eki-mae", "name:ja": "\u6771\u65e5\u672c\u6a4b\u99c5\u524d", "name:ja_kana": "\u3072\u304c\u3057\u306b\u307b\u3093\u3070\u3057\u3048\u304d\u307e\u3048", "name:ja_rm": "Higashi-nihombashi-eki-mae", "operator": "\u6771\u4eac\u90fd\u4ea4\u901a\u5c40;\u4e2d\u592e\u533a", "public_transport": "platform", "source": "survey"}}, {"type": "node", "id": 2366876978, "lat": 35.6851483, "lon": 139.7874934, "tags": {"bus": "yes", "covered": "yes", "highway": "bus_stop", "name": "\u6d5c\u753a\u4e2d\u306e\u6a4b", "name:en": "Hamacho-nakanohashi", "name:ja": "\u6d5c\u753a\u4e2d\u306e\u6a4b", "name:ja_kana": "\u306f\u307e\u3061\u3087\u3046\u306a\u304b\u306e\u306f\u3057", "name:ja_rm": "Hamach\u014d-nakanohashi", "network": "\u90fd\u55b6\u30d0\u30b9", "network:en": "Toei Bus", "network:ja": "\u90fd\u55b6\u30d0\u30b9", "network:wikidata": "Q859227", "operator": "\u6771\u4eac\u90fd\u4ea4\u901a\u5c40", "public_transport": "platform", "source": "survey"}}, {"type": "node", "id": 3977436330, "lat": 35.6900781, "lon": 139.7789348, "tags": {"bus": "yes", "highway": "bus_stop", "name": "\u5c0f\u4f1d\u99ac\u753a", "operator": "\u6771\u4eac\u90fd\u4ea4\u901a\u5c40", "public_transport": "platform"}}, {"type": "node", "id": 4005256766, "lat": 35.689714, "lon": 139.7766442, "tags": {"bus": "yes", "highway": "bus_stop", "name": "\u672c\u753a\u4e09\u4e01\u76ee", "name:en": "Honcho-sanchome", "name:ja": "\u672c\u753a\u4e09\u4e01\u76ee", "operator": "\u6771\u4eac\u90fd\u4ea4\u901a\u5c40", "public_transport": "platform"}}, {"type": "node", "id": 4005320452, "lat": 35.6904343, "lon": 139.7777728, "tags": {"bus": "yes", "highway": "bus_stop", "name": "\u5c0f\u4f1d\u99ac\u753a", "name:en": "Kodemmacho", "name:ja": "\u5c0f\u4f1d\u99ac\u753a", "operator": "\u6771\u4eac\u90fd\u4ea4\u901a\u5c40", "public_transport": "platform"}}, {"type": "node", "id": 5021209549, "lat": 35.6942078, "lon": 139.7777528, "tags": {"bench": "yes", "bus": "yes", "highway": "bus_stop", "name": "\u5ca9\u672c\u753a\u307b\u307b\u3048\u307f\u30d7\u30e9\u30b6", "network": "\u5343\u4ee3\u7530\u533a\u5730\u57df\u798f\u7949\u4ea4\u901a", "operator": "\u5343\u4ee3\u7530\u533a", "public_transport": "platform", "shelter": "no"}}, {"type": "node", "id": 5832384987, "lat": 35.6943577, "lon": 139.7835494, "tags": {"bench": "yes", "bus": "yes", "covered": "no", "highway": "bus_stop", "name": "\u6d45\u8349\u6a4b", "name:en": "Asakusabashi", "name:ja": "\u6d45\u8349\u6a4b", "name:ja-Latn": "Asakusabashi", "operator": "\u6771\u4eac\u90fd\u4ea4\u901a\u5c40", "public_transport": "platform"}}, {"type": "node", "id": 6376072071, "lat": 35.6875884, "lon": 139.7868701, "tags": {"bus": "yes", "departures_board": "no", "highway": "bus_stop", "name": "\u6d5c\u753a\u99c5", "name:en": "Hamacho Station", "name:es": "Hamacho Station", "name:ja": "\u6d5c\u753a\u99c5", "operator": "\u4e2d\u592e\u533a", "public_transport": "platform", "source": "survey"}}, {"type": "node", "id": 6376128150, "lat": 35.6884077, "lon": 139.7803723, "tags": {"bus": "yes", "highway": "bus_stop", "name": "\u5800\u7559\u753a\u4e00\u4e01\u76ee", "name:en": "Horidomecho 1-chome", "name:es": "Horidomecho 1-chome", "name:ja": "\u5800\u7559\u753a\u4e00\u4e01\u76ee", "operator": "\u4e2d\u592e\u533a\u30b3\u30df\u30e5\u30cb\u30c6\u30a3\u30d0\u30b9", "public_transport": "platform"}}, {"type": "node", "id": 9349818268, "lat": 35.6925372, "lon": 139.7815284, "tags": {"bus": "yes", "highway": "bus_stop", "name": "\u99ac\u55b0\u753a", "operator": "\u6771\u4eac\u90fd\u4ea4\u901a\u5c40", "public_transport": "platform"}}, {"type": "node", "id": 9349818269, "lat": 35.6927332, "lon": 139.7814453, "tags": {"bus": "yes", "highway": "bus_stop", "name": "\u99ac\u55b0\u753a", "operator": "\u6771\u4eac\u90fd\u4ea4\u901a\u5c40", "public_transport": "platform"}}, {"type": "node", "id": 9510182277, "lat": 35.6880448, "lon": 139.7797951, "tags": {"bus": "yes", "highway": "bus_stop", "name": "\u5800\u7559\u753a\u6771\u4eac\u5546\u54c1\u53d6\u5f15\u6240", "public_transport": "platform", "ref": "4"}}, {"type": "node", "id": 9510182278, "lat": 35.6896365, "lon": 139.7825793, "tags": {"bus": "yes", "highway": "bus_stop", "name": "\u5bcc\u6ca2\u753a", "public_transport": "platform", "ref": "5"}}, {"type": "node", "id": 9510182279, "lat": 35.6877565, "lon": 139.7867173, "tags": {"bus": "yes", "highway": "bus_stop", "name": "\u6d5c\u753a\u4e8c\u4e01\u76ee\u660e\u6cbb\u5ea7\u524d", "public_transport": "platform", "ref": "6"}}, {"type": "node", "id": 9510182280, "lat": 35.6851771, "lon": 139.7876848, "tags": {"bus": "yes", "highway": "bus_stop", "name": "\u6d5c\u753a\u4e09\u4e01\u76ee\u30c8\u30eb\u30ca\u30fc\u30ec\u524d", "network": "\u30e1\u30c8\u30ed\u30ea\u30f3\u30af\u65e5\u672c\u6a4bE\u30e9\u30a4\u30f3", "operator": "\u65e5\u306e\u4e38\u81ea\u52d5\u8eca\u8208\u696d", "public_transport": "platform", "ref": "7"}}, {"type": "node", "id": 9510182282, "lat": 35.6844814, "lon": 139.7824011, "tags": {"bus": "yes", "highway": "bus_stop", "name": "\u4eba\u5f62\u753a\u4e00\u4e01\u76ee", "public_transport": "platform", "ref": "10"}}, {"type": "node", "id": 9712992080, "lat": 35.6922082, "lon": 139.7772771, "tags": {"bus": "yes", "highway": "bus_stop", "name": "\u5ca9\u672c\u753a\u4e00\u4e01\u76ee", "operator": "\u6771\u4eac\u90fd\u4ea4\u901a\u5c40", "public_transport": "platform"}}, {"type": "node", "id": 9712992081, "lat": 35.6875943, "lon": 139.7810563, "tags": {"bus": "yes", "highway": "bus_stop", "name": "\u5800\u7559\u753a", "operator": "\u6771\u4eac\u90fd\u4ea4\u901a\u5c40", "public_transport": "platform"}}, {"type": "node", "id": 9712992082, "lat": 35.6844354, "lon": 139.7838378, "tags": {"bus": "yes", "highway": "bus_stop", "name": "\u6c34\u5929\u5bae\u524d", "operator": "\u6771\u4eac\u90fd\u4ea4\u901a\u5c40", "public_transport": "platform"}}]}